{
  "norad_id": 66378,
  "name": "SHIYAN-32 02",
  "history": [
    {
      "epoch": "2026-03-28T22:44:12.182208Z",
      "apogee_km": 449.68263139855935,
      "perigee_km": 437.14530287605794,
      "latitude_deg": -5.71968261027787e-05,
      "longitude_deg": -132.46500181460956,
      "height_km": 441.5161952901738,
      "semi_major_axis_km": 6821.550967137308,
      "eccentricity": 0.00091895,
      "inclination_deg": 52.9938,
      "raan_deg": 34.9463,
      "arg_perigee_deg": 296.4172,
      "mean_anomaly_deg": 63.5887,
      "mean_motion_rev_day": 15.40912824
    }
  ]
}